{
    "links": {
        "self": "http://www.neowsapp.com/rest/v1/neo/3856713?api_key=iIulBulltgU6a56xZRHN4H3l9WmuAYTsLGpBGhQ2"
    },
    "id": "3856713",
    "neo_reference_id": "3856713",
    "name": "(2019 SK4)",
    "designation": "2019 SK4",
    "nasa_jpl_url": "http://ssd.jpl.nasa.gov/sbdb.cgi?sstr=3856713",
    "absolute_magnitude_h": 24.2,
    "estimated_diameter": {
        "kilometers": {
            "estimated_diameter_min": 0.0384197891,
            "estimated_diameter_max": 0.0859092601
        },
        "meters": {
            "estimated_diameter_min": 38.4197891064,
            "estimated_diameter_max": 85.9092601232
        },
        "miles": {
            "estimated_diameter_min": 0.0238729428,
            "estimated_diameter_max": 0.0533815229
        },
        "feet": {
            "estimated_diameter_min": 126.0491808919,
            "estimated_diameter_max": 281.8545369825
        }
    },
    "is_potentially_hazardous_asteroid": false,
    "close_approach_data": [
        {
            "close_approach_date": "2019-10-03",
            "close_approach_date_full": "2019-Oct-03 03:10",
            "epoch_date_close_approach": 1570072200000,
            "relative_velocity": {
                "kilometers_per_second": "18.362529383",
                "kilometers_per_hour": "66105.1057787266",
                "miles_per_hour": "41075.1419767871"
            },
            "miss_distance": {
                "astronomical": "0.0831674345",
                "lunar": "32.3521320205",
                "kilometers": "12441671.054564515",
                "miles": "7730895.906899707"
            },
            "orbiting_body": "Earth"
        }
    ],
    "orbital_data": {
        "orbit_id": "2",
        "orbit_determination_date": "2019-10-01 06:54:42",
        "first_observation_date": "2019-09-25",
        "last_observation_date": "2019-10-01",
        "data_arc_in_days": 6,
        "observations_used": 17,
        "orbit_uncertainty": "9",
        "minimum_orbit_intersection": ".0825925",
        "jupiter_tisserand_invariant": "3.984",
        "epoch_osculation": "2458752.5",
        "eccentricity": ".4423338803742506",
        "semi_major_axis": "1.679393038770575",
        "inclination": "29.67581405405098",
        "ascending_node_longitude": "5.788359891546788",
        "orbital_period": "794.9264539138392",
        "perihelion_distance": ".9365405992576825",
        "perihelion_argument": "58.6534620579611",
        "aphelion_distance": "2.422245478283468",
        "perihelion_time": "2458804.924963397992",
        "mean_anomaly": "336.2581975598428",
        "mean_motion": ".4528720842381475",
        "equinox": "J2000",
        "orbit_class": {
            "orbit_class_type": "APO",
            "orbit_class_description": "Near-Earth asteroid orbits which cross the Earth’s orbit similar to that of 1862 Apollo",
            "orbit_class_range": "a (semi-major axis) > 1.0 AU; q (perihelion) < 1.017 AU"
        }
    },
    "is_sentry_object": false
}